{"type": "FeatureCollection", "features": [ {"type": "Feature", "properties": {"norad_id": 34077, "name": "IRIDIUM 33 DEB", "group": "iridium-33-debris", "lat": -11.392541864831234, "lon": -125.41052951457908, "alt_km": 687.7922497253321, "timestamp": "2025-12-07T09:35:10.174399+00:00", "meta": {"OBJECT_NAME": "IRIDIUM 33 DEB", "OBJECT_ID": "1997-051CL", "EPOCH": "2025-12-06T23:26:07.254240", "MEAN_MOTION": 14.64704076, "ECCENTRICITY": 0.00107432, "INCLINATION": 86.3867, "RA_OF_ASC_NODE": 54.0461, "ARG_OF_PERICENTER": 57.7829, "MEAN_ANOMALY": 64.6743, "EPHEMERIS_TYPE": 0, "CLASSIFICATION_TYPE": "U", "NORAD_CAT_ID": 34077, "ELEMENT_SET_NO": 999, "REV_AT_EPOCH": 88248, "BSTAR": 0.0026763823, "MEAN_MOTION_DOT": 0.00014292, "MEAN_MOTION_DDOT": 0}, "tle": {"line1": "1 34077U 97051CL  25340.97647285  .00014292  00000+0  26764-2 0  9999", "line2": "2 34077  86.3867  54.0461 0010743  57.7829  64.6743 14.64704076882483"}}, "geometry": {"type": "Point", "coordinates": [-125.41052951457908, -11.392541864831234]}}, {"type": "Feature", "properties": {"norad_id": 34079, "name": "IRIDIUM 33 DEB", "group": "iridium-33-debris", "lat": -5.28234052182224, "lon": -168.57400292335097, "alt_km": 626.7881444629675, "timestamp": "2025-12-07T09:35:10.174410+00:00", "meta": {"OBJECT_NAME": "IRIDIUM 33 DEB", "OBJECT_ID": "1997-051CN", "EPOCH": "2025-12-06T20:36:57.983616", "MEAN_MOTION": 14.83301604, "ECCENTRICITY": 0.00063125, "INCLINATION": 86.377, "RA_OF_ASC_NODE": 11.336, "ARG_OF_PERICENTER": 26.7021, "MEAN_ANOMALY": 154.5513, "EPHEMERIS_TYPE": 0, "CLASSIFICATION_TYPE": "U", "NORAD_CAT_ID": 34079, "ELEMENT_SET_NO": 999, "REV_AT_EPOCH": 88890, "BSTAR": 0.0028333793, "MEAN_MOTION_DOT": 0.00023271, "MEAN_MOTION_DDOT": 0}, "tle": {"line1": "1 34079U 97051CN  25340.85900444  .00023271  00000+0  28334-2 0  9999", "line2": "2 34079  86.3770  11.3360 0006312  26.7021 154.5513 14.83301604888907"}}, "geometry": {"type": "Point", "coordinates": [-168.57400292335097, -5.28234052182224]}}, {"type": "Feature", "properties": {"norad_id": 34088, "name": "IRIDIUM 33 DEB", "group": "iridium-33-debris", "lat": 52.44932265477315, "lon": -151.5401017889755, "alt_km": 588.7338397837229, "timestamp": "2025-12-07T09:35:10.174420+00:00", "meta": {"OBJECT_NAME": "IRIDIUM 33 DEB", "OBJECT_ID": "1997-051CX", "EPOCH": "2025-12-06T22:31:14.068992", "MEAN_MOTION": 14.90964191, "ECCENTRICITY": 0.00052577, "INCLINATION": 86.3849, "RA_OF_ASC_NODE": 33.389, "ARG_OF_PERICENTER": 198.2241, "MEAN_ANOMALY": 336.0244, "EPHEMERIS_TYPE": 0, "CLASSIFICATION_TYPE": "U", "NORAD_CAT_ID": 34088, "ELEMENT_SET_NO": 999, "REV_AT_EPOCH": 88655, "BSTAR": 0.0039064328, "MEAN_MOTION_DOT": 0.00038774, "MEAN_MOTION_DDOT": 0}, "tle": {"line1": "1 34088U 97051CX  25340.93835728  .00038774  00000+0  39064-2 0  9996", "line2": "2 34088  86.3849  33.3890 0005257 198.2241 336.0244 14.90964191886553"}}, "geometry": {"type": "Point", "coordinates": [-151.5401017889755, 52.44932265477315]}}, {"type": "Feature", "properties": {"norad_id": 34091, "name": "IRIDIUM 33 DEB", "group": "iridium-33-debris", "lat": 41.06287395590307, "lon": -113.91500349813148, "alt_km": 645.3631826154578, "timestamp": "2025-12-07T09:35:10.174431+00:00", "meta": {"OBJECT_NAME": "IRIDIUM 33 DEB", "OBJECT_ID": "1997-051DA", "EPOCH": "2025-12-06T16:44:46.781088", "MEAN_MOTION": 14.81124325, "ECCENTRICITY": 0.00331132, "INCLINATION": 86.3424, "RA_OF_ASC_NODE": 69.6006, "ARG_OF_PERICENTER": 314.9331, "MEAN_ANOMALY": 44.9204, "EPHEMERIS_TYPE": 0, "CLASSIFICATION_TYPE": "U", "NORAD_CAT_ID": 34091, "ELEMENT_SET_NO": 999, "REV_AT_EPOCH": 87777, "BSTAR": 0.0087798064, "MEAN_MOTION_DOT": 0.00069464, "MEAN_MOTION_DDOT": 0}, "tle": {"line1": "1 34091U 97051DA  25340.69776367  .00069464  00000+0  87798-2 0  9993", "line2": "2 34091  86.3424  69.6006 0033113 314.9331  44.9204 14.81124325877778"}}, "geometry": {"type": "Point", "coordinates": [-113.91500349813148, 41.06287395590307]}}, {"type": "Feature", "properties": {"norad_id": 34097, "name": "IRIDIUM 33 DEB", "group": "iridium-33-debris", "lat": -24.557558835252564, "lon": -174.49462130781723, "alt_km": 841.0094558984383, "timestamp": "2025-12-07T09:35:10.174441+00:00", "meta": {"OBJECT_NAME": "IRIDIUM 33 DEB", "OBJECT_ID": "1997-051DG", "EPOCH": "2025-12-06T12:33:02.637216", "MEAN_MOTION": 14.34704605, "ECCENTRICITY": 0.00832985, "INCLINATION": 86.1999, "RA_OF_ASC_NODE": 4.1517, "ARG_OF_PERICENTER": 22.3906, "MEAN_ANOMALY": 338.0891, "EPHEMERIS_TYPE": 0, "CLASSIFICATION_TYPE": "U", "NORAD_CAT_ID": 34097, "ELEMENT_SET_NO": 999, "REV_AT_EPOCH": 87030, "BSTAR": 0.002279274, "MEAN_MOTION_DOT": 6.729e-05, "MEAN_MOTION_DDOT": 0}, "tle": {"line1": "1 34097U 97051DG  25340.52294719  .00006729  00000+0  22793-2 0  9996", "line2": "2 34097  86.1999   4.1517 0083298  22.3906 338.0891 14.34704605870301"}}, "geometry": {"type": "Point", "coordinates": [-174.49462130781723, -24.557558835252564]}}, {"type": "Feature", "properties": {"norad_id": 34145, "name": "IRIDIUM 33 DEB", "group": "iridium-33-debris", "lat": -30.838746081194166, "lon": -27.36278820748638, "alt_km": 788.1183295612454, "timestamp": "2025-12-07T09:35:10.174452+00:00", "meta": {"OBJECT_NAME": "IRIDIUM 33 DEB", "OBJECT_ID": "1997-051DY", "EPOCH": "2025-12-06T17:04:42.938112", "MEAN_MOTION": 14.42224915, "ECCENTRICITY": 0.00555052, "INCLINATION": 86.211, "RA_OF_ASC_NODE": 335.211, "ARG_OF_PERICENTER": 112.9969, "MEAN_ANOMALY": 247.71, "EPHEMERIS_TYPE": 0, "CLASSIFICATION_TYPE": "U", "NORAD_CAT_ID": 34145, "ELEMENT_SET_NO": 999, "REV_AT_EPOCH": 87551, "BSTAR": 0.0017839486, "MEAN_MOTION_DOT": 6.008e-05, "MEAN_MOTION_DDOT": 0}, "tle": {"line1": "1 34145U 97051DY  25340.71160808  .00006008  00000+0  17839-2 0  9997", "line2": "2 34145  86.2110 335.2110 0055505 112.9969 247.7100 14.42224915875510"}}, "geometry": {"type": "Point", "coordinates": [-27.36278820748638, -30.838746081194166]}}, {"type": "Feature", "properties": {"norad_id": 34146, "name": "IRIDIUM 33 DEB", "group": "iridium-33-debris", "lat": -17.35856097609764, "lon": 173.3240566417659, "alt_km": 721.0554530501813, "timestamp": "2025-12-07T09:35:10.174463+00:00", "meta": {"OBJECT_NAME": "IRIDIUM 33 DEB", "OBJECT_ID": "1997-051DZ", "EPOCH": "2025-12-06T11:50:11.529600", "MEAN_MOTION": 14.4898423, "ECCENTRICITY": 0.00250615, "INCLINATION": 86.2832, "RA_OF_ASC_NODE": 352.5599, "ARG_OF_PERICENTER": 243.9958, "MEAN_ANOMALY": 269.256, "EPHEMERIS_TYPE": 0, "CLASSIFICATION_TYPE": "U", "NORAD_CAT_ID": 34146, "ELEMENT_SET_NO": 999, "REV_AT_EPOCH": 88016, "BSTAR": 0.0017576826, "MEAN_MOTION_DOT": 6.708e-05, "MEAN_MOTION_DDOT": 0}, "tle": {"line1": "1 34146U 97051DZ  25340.49318900  .00006708  00000+0  17577-2 0  9997", "line2": "2 34146  86.2832 352.5599 0025061 243.9958 269.2560 14.48984230880167"}}, "geometry": {"type": "Point", "coordinates": [173.3240566417659, -17.35856097609764]}}, {"type": "Feature", "properties": {"norad_id": 34159, "name": "IRIDIUM 33 DEB", "group": "iridium-33-debris", "lat": 65.05944798157637, "lon": -137.36643591349454, "alt_km": 775.5598858285066, "timestamp": "2025-12-07T09:35:10.174473+00:00", "meta": {"OBJECT_NAME": "IRIDIUM 33 DEB", "OBJECT_ID": "1997-051EN", "EPOCH": "2025-12-06T16:21:33.570720", "MEAN_MOTION": 14.38471316, "ECCENTRICITY": 0.00261741, "INCLINATION": 86.3519, "RA_OF_ASC_NODE": 50.8246, "ARG_OF_PERICENTER": 309.1384, "MEAN_ANOMALY": 50.7488, "EPHEMERIS_TYPE": 0, "CLASSIFICATION_TYPE": "U", "NORAD_CAT_ID": 34159, "ELEMENT_SET_NO": 999, "REV_AT_EPOCH": 87872, "BSTAR": 0.00079175056, "MEAN_MOTION_DOT": 2.445e-05, "MEAN_MOTION_DDOT": 0}, "tle": {"line1": "1 34159U 97051EN  25340.68163855  .00002445  00000+0  79175-3 0  9996", "line2": "2 34159  86.3519  50.8246 0026174 309.1384  50.7488 14.38471316878721"}}, "geometry": {"type": "Point", "coordinates": [-137.36643591349454, 65.05944798157637]}}, {"type": "Feature", "properties": {"norad_id": 34350, "name": "IRIDIUM 33 DEB", "group": "iridium-33-debris", "lat": 10.718925095788986, "lon": 5.821362143409774, "alt_km": 754.6328170061406, "timestamp": "2025-12-07T09:35:10.174483+00:00", "meta": {"OBJECT_NAME": "IRIDIUM 33 DEB", "OBJECT_ID": "1997-051ES", "EPOCH": "2025-12-06T14:11:52.830816", "MEAN_MOTION": 14.45366247, "ECCENTRICITY": 0.00221806, "INCLINATION": 86.328, "RA_OF_ASC_NODE": 5.4752, "ARG_OF_PERICENTER": 154.4989, "MEAN_ANOMALY": 335.7488, "EPHEMERIS_TYPE": 0, "CLASSIFICATION_TYPE": "U", "NORAD_CAT_ID": 34350, "ELEMENT_SET_NO": 999, "REV_AT_EPOCH": 88204, "BSTAR": 0.00058263212, "MEAN_MOTION_DOT": 2.073e-05, "MEAN_MOTION_DDOT": 0}, "tle": {"line1": "1 34350U 97051ES  25340.59158369  .00002073  00000+0  58263-3 0  9995", "line2": "2 34350  86.3280   5.4752 0022180 154.4989 335.7488 14.45366247882042"}}, "geometry": {"type": "Point", "coordinates": [5.821362143409774, 10.718925095788986]}}, {"type": "Feature", "properties": {"norad_id": 34366, "name": "IRIDIUM 33 DEB", "group": "iridium-33-debris", "lat": 6.7408585401142975, "lon": -128.79422731850684, "alt_km": 699.8416521404888, "timestamp": "2025-12-07T09:35:10.174493+00:00", "meta": {"OBJECT_NAME": "IRIDIUM 33 DEB", "OBJECT_ID": "1997-051FJ", "EPOCH": "2025-12-06T16:52:17.213664", "MEAN_MOTION": 14.53976386, "ECCENTRICITY": 0.00220026, "INCLINATION": 86.3702, "RA_OF_ASC_NODE": 51.9384, "ARG_OF_PERICENTER": 159.0299, "MEAN_ANOMALY": 330.9373, "EPHEMERIS_TYPE": 0, "CLASSIFICATION_TYPE": "U", "NORAD_CAT_ID": 34366, "ELEMENT_SET_NO": 999, "REV_AT_EPOCH": 88094, "BSTAR": 0.0020252138, "MEAN_MOTION_DOT": 8.581e-05, "MEAN_MOTION_DDOT": 0}, "tle": {"line1": "1 34366U 97051FJ  25340.70297701  .00008581  00000+0  20252-2 0  9995", "line2": "2 34366  86.3702  51.9384 0022002 159.0299 330.9373 14.53976386880940"}}, "geometry": {"type": "Point", "coordinates": [-128.79422731850684, 6.7408585401142975]}}]}